CCSDS_OMM_VERS = 2.0
CREATION_DATE  = 
ORIGINATOR     = 

OBJECT_NAME    = SOYUZ-MS 28
OBJECT_ID      = 2025-275A
CENTER_NAME    = EARTH
REF_FRAME      = TEME
TIME_SYSTEM    = UTC
MEAN_ELEMENT_THEORY = SGP/SGP4

EPOCH          = 2026-01-09T18:57:52.682112
MEAN_MOTION    = 15.49200529
ECCENTRICITY   = .00076717
INCLINATION    = 51.6333
RA_OF_ASC_NODE = 3.6003
ARG_OF_PERICENTER = 0.0842
MEAN_ANOMALY   = 0.0147

EPHEMERIS_TYPE = 0
CLASSIFICATION_TYPE = U
NORAD_CAT_ID   = 66664
ELEMENT_SET_NO = 999
REV_AT_EPOCH   = 128
BSTAR          = .18215898E-3
MEAN_MOTION_DOT = .9674E-4
MEAN_MOTION_DDOT = 0

CCSDS_OMM_VERS = 2.0
CREATION_DATE  = 
ORIGINATOR     = 

OBJECT_NAME    = 1998-067XS
OBJECT_ID      = 1998-067XS
CENTER_NAME    = EARTH
REF_FRAME      = TEME
TIME_SYSTEM    = UTC
MEAN_ELEMENT_THEORY = SGP/SGP4

EPOCH          = 2026-01-09T07:11:33.830304
MEAN_MOTION    = 15.52220738
ECCENTRICITY   = .00023625
INCLINATION    = 51.6320
RA_OF_ASC_NODE = 5.5768
ARG_OF_PERICENTER = 347.8929
MEAN_ANOMALY   = 12.2003

EPHEMERIS_TYPE = 0
CLASSIFICATION_TYPE = U
NORAD_CAT_ID   = 66906
ELEMENT_SET_NO = 999
REV_AT_EPOCH   = 589
BSTAR          = .51807589E-3
MEAN_MOTION_DOT = .31665E-3
MEAN_MOTION_DDOT = 0

CCSDS_OMM_VERS = 2.0
CREATION_DATE  = 
ORIGINATOR     = 

OBJECT_NAME    = 1998-067XT
OBJECT_ID      = 1998-067XT
CENTER_NAME    = EARTH
REF_FRAME      = TEME
TIME_SYSTEM    = UTC
MEAN_ELEMENT_THEORY = SGP/SGP4

EPOCH          = 2026-01-09T06:16:47.882784
MEAN_MOTION    = 15.55609460
ECCENTRICITY   = .00037257
INCLINATION    = 51.6317
RA_OF_ASC_NODE = 5.3229
ARG_OF_PERICENTER = 32.7085
MEAN_ANOMALY   = 327.4137

EPHEMERIS_TYPE = 0
CLASSIFICATION_TYPE = U
NORAD_CAT_ID   = 66907
ELEMENT_SET_NO = 999
REV_AT_EPOCH   = 589
BSTAR          = .12623304E-2
MEAN_MOTION_DOT = .88747E-3
MEAN_MOTION_DDOT = 0

CCSDS_OMM_VERS = 2.0
CREATION_DATE  = 
ORIGINATOR     = 

OBJECT_NAME    = 1998-067XU
OBJECT_ID      = 1998-067XU
CENTER_NAME    = EARTH
REF_FRAME      = TEME
TIME_SYSTEM    = UTC
MEAN_ELEMENT_THEORY = SGP/SGP4

EPOCH          = 2026-01-09T06:15:19.032480
MEAN_MOTION    = 15.55589733
ECCENTRICITY   = .00036757
INCLINATION    = 51.6310
RA_OF_ASC_NODE = 5.3150
ARG_OF_PERICENTER = 28.0086
MEAN_ANOMALY   = 332.1103

EPHEMERIS_TYPE = 0
CLASSIFICATION_TYPE = U
NORAD_CAT_ID   = 66908
ELEMENT_SET_NO = 999
REV_AT_EPOCH   = 589
BSTAR          = .11979453E-2
MEAN_MOTION_DOT = .84084E-3
MEAN_MOTION_DDOT = 0

CCSDS_OMM_VERS = 2.0
CREATION_DATE  = 
ORIGINATOR     = 

OBJECT_NAME    = SILVERSAT
OBJECT_ID      = 1998-067XV
CENTER_NAME    = EARTH
REF_FRAME      = TEME
TIME_SYSTEM    = UTC
MEAN_ELEMENT_THEORY = SGP/SGP4

EPOCH          = 2026-01-09T04:34:03.488160
MEAN_MOTION    = 15.56179247
ECCENTRICITY   = .00039232
INCLINATION    = 51.6316
RA_OF_ASC_NODE = 5.5959
ARG_OF_PERICENTER = 37.4652
MEAN_ANOMALY   = 322.6612

EPHEMERIS_TYPE = 0
CLASSIFICATION_TYPE = U
NORAD_CAT_ID   = 66909
ELEMENT_SET_NO = 999
REV_AT_EPOCH   = 588
BSTAR          = .10106622E-2
MEAN_MOTION_DOT = .72326E-3
MEAN_MOTION_DDOT = 0

CCSDS_OMM_VERS = 2.0
CREATION_DATE  = 
ORIGINATOR     = 

OBJECT_NAME    = 1998-067XW
OBJECT_ID      = 1998-067XW
CENTER_NAME    = EARTH
REF_FRAME      = TEME
TIME_SYSTEM    = UTC
MEAN_ELEMENT_THEORY = SGP/SGP4

EPOCH          = 2026-01-09T10:44:23.865216
MEAN_MOTION    = 15.55933353
ECCENTRICITY   = .00027961
INCLINATION    = 51.6299
RA_OF_ASC_NODE = 4.3115
ARG_OF_PERICENTER = 13.9066
MEAN_ANOMALY   = 346.2002

EPHEMERIS_TYPE = 0
CLASSIFICATION_TYPE = U
NORAD_CAT_ID   = 66910
ELEMENT_SET_NO = 999
REV_AT_EPOCH   = 592
BSTAR          = .12094795E-2
MEAN_MOTION_DOT = .85999E-3
MEAN_MOTION_DDOT = 0

CCSDS_OMM_VERS = 2.0
CREATION_DATE  = 
ORIGINATOR     = 

OBJECT_NAME    = 1998-067XX
OBJECT_ID      = 1998-067XX
CENTER_NAME    = EARTH
REF_FRAME      = TEME
TIME_SYSTEM    = UTC
MEAN_ELEMENT_THEORY = SGP/SGP4

EPOCH          = 2026-01-09T07:22:59.816064
MEAN_MOTION    = 15.56904964
ECCENTRICITY   = .00028597
INCLINATION    = 51.6304
RA_OF_ASC_NODE = 4.8782
ARG_OF_PERICENTER = 28.9263
MEAN_ANOMALY   = 331.1886

EPHEMERIS_TYPE = 0
CLASSIFICATION_TYPE = U
NORAD_CAT_ID   = 66911
ELEMENT_SET_NO = 999
REV_AT_EPOCH   = 589
BSTAR          = .14117993E-2
MEAN_MOTION_DOT = .104412E-2
MEAN_MOTION_DDOT = 0

CCSDS_OMM_VERS = 2.0
CREATION_DATE  = 
ORIGINATOR     = 

OBJECT_NAME    = 1998-067XY
OBJECT_ID      = 1998-067XY
CENTER_NAME    = EARTH
REF_FRAME      = TEME
TIME_SYSTEM    = UTC
MEAN_ELEMENT_THEORY = SGP/SGP4

EPOCH          = 2026-01-09T06:36:46.687104
MEAN_MOTION    = 15.54359427
ECCENTRICITY   = .00035692
INCLINATION    = 51.6313
RA_OF_ASC_NODE = 5.4149
ARG_OF_PERICENTER = 17.1401
MEAN_ANOMALY   = 342.9710

EPHEMERIS_TYPE = 0
CLASSIFICATION_TYPE = U
NORAD_CAT_ID   = 66912
ELEMENT_SET_NO = 999
REV_AT_EPOCH   = 588
BSTAR          = .97380165E-3
MEAN_MOTION_DOT = .65072E-3
MEAN_MOTION_DDOT = 0

