SOYUZ-MS 28             
1 66664U 25275A   26009.79019308  .00009674  00000+0  18216-3 0  9999
2 66664  51.6333   3.6003 0007671   0.0842   0.0147 15.49200529  1288
1998-067XS              
1 66906U 98067XS  26009.29969711  .00031665  00000+0  51808-3 0  9993
2 66906  51.6320   5.5768 0002362 347.8929  12.2003 15.52220738  5897
1998-067XT              
1 66907U 98067XT  26009.26166531  .00088747  00000+0  12623-2 0  9994
2 66907  51.6317   5.3229 0003725  32.7085 327.4137 15.55609460  5896
1998-067XU              
1 66908U 98067XU  26009.26063695  .00084084  00000+0  11979-2 0  9995
2 66908  51.6310   5.3150 0003675  28.0086 332.1103 15.55589733  5892
SILVERSAT               
1 66909U 98067XV  26009.19031815  .00072326  00000+0  10107-2 0  9995
2 66909  51.6316   5.5959 0003923  37.4652 322.6612 15.56179247  5881
1998-067XW              
1 66910U 98067XW  26009.44749844  .00085999  00000+0  12095-2 0  9991
2 66910  51.6299   4.3115 0002796  13.9066 346.2002 15.55933353  5924
1998-067XX              
1 66911U 98067XX  26009.30763676  .00104412  00000+0  14118-2 0  9996
2 66911  51.6304   4.8782 0002859  28.9263 331.1886 15.56904964  5898
1998-067XY              
1 66912U 98067XY  26009.27554036  .00065072  00000+0  97380-3 0  9992
2 66912  51.6313   5.4149 0003569  17.1401 342.9710 15.54359427  5887
